0 CZ-3 R/B
1 29517U 06048B   13282.15566272  .00095575 -45903-6  15268-2 0  1223
2 29517 028.4858 130.1043 5534795 243.5153 338.8407 04.87058378 87114
0 CZ-3 R/B
1 29517U 06048B   13284.00176993  .00093528 -36904-6  14790-2 0  1233
2 29517 028.4840 128.2920 5532946 246.4672 336.9807 04.87395790 87206
0 CZ-3 R/B
1 29517U 06048B   13285.46807243  .00091603 -91272-7  14264-2 0  1242
2 29517 028.4907 126.8511 5531799 248.8201 030.4652 04.87640877 87279
0 CZ-3 R/B
1 29517U 06048B   13286.05425264  .00092227  31385-7  14311-2 0  1252
2 29517 028.4917 126.2742 5531284 249.7598 339.6169 04.87738976 87307
0 CZ-3 R/B
1 29517U 06048B   13286.86220312  .00091733  18285-6  14234-2 0  1267
2 29517 028.4875 125.4772 5530508 251.0528 318.4739 04.87868100 87346
0 CZ-3 R/B
1 29517U 06048B   13287.07923934  .00090414  21754-6  14033-2 0  1279
2 29517 028.4867 125.2620 5530292 251.4017 339.6791 04.87902987 87350
0 CZ-3 R/B
1 29517U 06048B   13287.52176689  .00093837  27815-6  14479-2 0  1287
2 29517 028.4882 124.8258 5529986 252.1126 037.0258 04.87973287 87376
0 CZ-3 R/B
1 29517U 06048B   13289.57603269  .00101998  35865-6  15547-2 0  1293
2 29517 028.4868 122.8009 5527803 255.4095 047.3032 04.88367774 87473
0 CZ-3 R/B
1 29517U 06048B   13290.59471128  .00092022  00000-0  13070-2 0  1309
2 29517 028.4881 121.7851 5528012 257.0507 038.6262 04.88558793 87516
0 CZ-3 R/B
1 29517U 06048B   13290.59471966  .00093173  29106-6  13795-2 0  1305
2 29517 028.5312 121.7955 5527183 257.0568 038.6418 04.88564147 87520
0 CZ-3 R/B
1 29517U 06048B   13290.60110278  .00102274  29101-6  15531-2 0  1312
2 29517 028.4769 121.7827 5526694 257.0618 049.8737 04.88557885 87524
0 CZ-3 R/B
1 29517U 06048B   13291.40841700  .00096524  20807-6  14446-2 0  1321
2 29517 028.4937 120.9825 5526077 258.3594 030.0220 04.88704888 87562
0 CZ-3 R/B
1 29517U 06048B   13291.99044572  .00090923  14093-6  13474-2 0  1335
2 29517 028.4966 120.4081 5525680 259.2943 334.1121 04.88800774 87592
0 CZ-3 R/B
1 29517U 06048B   13292.43179902  .00092035  89274-7  13677-2 0  1347
2 29517 028.4933 119.9787 5525125 260.0006 030.8318 04.88879958 87617
0 CZ-3 R/B
1 29517U 06048B   13293.45419295  .00089690 -22971-7  13295-2 0  1354
2 29517 028.4934 118.9710 5524143 261.6442 030.5375 04.89044801 87660
0 CZ-3 R/B
1 29517U 06048B   13294.03711427  .00088139 -77374-7  13034-2 0  1367
2 29517 028.4935 118.3967 5523576 262.5826 336.9216 04.89143362 87696
0 CZ-3 R/B
1 29517U 06048B   13294.84405910  .00091768 -13652-6  13522-2 0  1376
2 29517 028.4966 117.6059 5522795 263.8808 318.0997 04.89280891 87731
0 CZ-3 R/B
1 29517U 06048B   13295.49977406  .00085044 -16891-6  12133-2 0  1399
2 29517 028.5283 116.9417 5522710 264.9538 033.2280 04.89401381 87766
0 CZ-3 R/B
1 29517U 06048B   13295.50156859  .00088840 -16896-6  13079-2 0  1383
2 29517 028.4947 116.9532 5522184 264.9391 036.3687 04.89382192 87765
